#Pass ID: 20250124_133835_FENGYUN 3E
#Satellite: FENGYUN 3E
#Configuration: FENGYUN 3E
#Start time: 2025-01-24 13:38:40.468589

#LorettStation: 1.0.0 05.05.2024
#Station: Regia
#Location: 37.494653 lon 55.929028 lat
#TLE: 1 49008U 21062A   25023.78492685  .00000119  00000+0  76631-4 0  9990
#TLE: 2 49008  98.7401  28.1897 0002586 106.5182 253.6279 14.19835191184291

#Time	Az	El	Level	SNR
#Closed at: 2025-01-24 13:38:35.470248